[{"OBJECT_NAME":"STARLINK-31244","OBJECT_ID":"2024-019D","EPOCH":"2026-03-09T13:29:07.131840","MEAN_MOTION":15.27599347,"ECCENTRICITY":0.00021016,"INCLINATION":43.0044,"RA_OF_ASC_NODE":249.5832,"ARG_OF_PERICENTER":278.4832,"MEAN_ANOMALY":81.5781,"EPHEMERIS_TYPE":0,"CLASSIFICATION_TYPE":"U","NORAD_CAT_ID":58856,"ELEMENT_SET_NO":999,"REV_AT_EPOCH":11906,"BSTAR":-6.9451264e-5,"MEAN_MOTION_DOT":-2.174e-5,"MEAN_MOTION_DDOT":0},{"OBJECT_NAME":"FLOCK 4G-29","OBJECT_ID":"2025-009AK","EPOCH":"2026-03-09T19:33:04.927968","MEAN_MOTION":15.27382318,"ECCENTRICITY":0.00013664,"INCLINATION":97.4058,"RA_OF_ASC_NODE":151.3683,"ARG_OF_PERICENTER":288.0502,"MEAN_ANOMALY":72.0588,"EPHEMERIS_TYPE":0,"CLASSIFICATION_TYPE":"U","NORAD_CAT_ID":62642,"ELEMENT_SET_NO":999,"REV_AT_EPOCH":6372,"BSTAR":0.0004183135,"MEAN_MOTION_DOT":0.00011147,"MEAN_MOTION_DDOT":0}]
